STARLINK-31554          
1 59195U 24045T   26068.45706740 -.00001011  00000+0 -27212-4 0  9991
2 59195  43.0054  94.0421 0001472 276.0564  84.0120 15.27573123113120
PHISAT 2                
1 60470U 24149C   26068.78834181  .00008925  00000+0  31421-3 0  9996
2 60470  97.3806 148.6498 0001175 168.6230 191.5037 15.29548631 86792
